NORAD_CAT_ID,OBJECT_NAME,OBJECT_TYPE,EPOCH,MEAN_MOTION,ECCENTRICITY,INCLINATION,RA_OF_ASC_NODE,ARG_OF_PERICENTER,MEAN_ANOMALY,BSTAR,MEAN_MOTION_DOT,MEAN_MOTION_DDOT,TLE_LINE0,TLE_LINE1,TLE_LINE2,SEMIMAJOR_AXIS,PERIOD,APOGEE,PERIGEE,DECAYED
52618.0,STARLINK-3983,PAYLOAD,2022-12-17 20:49:35,15.08852563,0.0002434,53.2148,156.5766,41.8663,318.2515,0.00019726,2.854e-05,0.0,0 STARLINK-3983,1 52618U 22052W   22351.86776708  .00002854  00000-0  19726-3 0  9992,2 52618  53.2148 156.5766 0002434  41.8663 318.2515 15.08852563 33176,6917.842,95.437,541.391,538.023,0.0
52618.0,STARLINK-3983,PAYLOAD,2022-12-17 22:24:58,15.08844991,0.0002502,53.2145,156.2781,44.1982,315.921,0.00013612,1.879e-05,0.0,0 STARLINK-3983,1 52618U 22052W   22351.93401069  .00001879  00000-0  13612-3 0  9999,2 52618  53.2145 156.2781 0002502  44.1982 315.9210 15.08844991 33568,6917.865,95.437,541.461,537.999,0.0
52618.0,STARLINK-3983,PAYLOAD,2022-12-18 20:40:21,15.08852082,0.0002437,53.2146,152.1148,44.0711,316.0475,0.0001756,2.508e-05,0.0,0 STARLINK-3983,1 52618U 22052W   22352.86136390  .00002508  00000-0  17560-3 0  9990,2 52618  53.2146 152.1148 0002437  44.0711 316.0475 15.08852082 33326,6917.843000000003,95.437,541.394,538.023,0.0
52618.0,STARLINK-3983,PAYLOAD,2022-12-18 22:15:44,15.08852307,0.0002441,53.2146,151.8174,44.0976,316.0211,0.00017226,2.455e-05,0.0,0 STARLINK-3983,1 52618U 22052W   22352.92760327  .00002455  00000-0  17226-3 0  9990,2 52618  53.2146 151.8174 0002441  44.0976 316.0211 15.08852307 33338,6917.843000000003,95.437,541.396,538.019,0.0
52618.0,STARLINK-3983,PAYLOAD,2022-12-19 17:20:22,15.08847866,0.0002477,53.2149,148.2488,46.0821,314.0376,2.8159e-05,1.6e-06,0.0,0 STARLINK-3983,1 52618U 22052W   22353.72248089  .00000160  00000-0  28159-4 0  9994,2 52618  53.2149 148.2488 0002477  46.0821 314.0376 15.08847866 33838,6917.856,95.437,541.435,538.008,0.0
52618.0,STARLINK-3983,PAYLOAD,2022-12-19 18:55:45,15.08847365,0.0002467,53.2148,147.9517,45.0036,315.1155,2.7654e-05,1.52e-06,0.0,0 STARLINK-3983,1 52618U 22052W   22353.78872058  .00000152  00000-0  27654-4 0  9999,2 52618  53.2148 147.9517 0002467  45.0036 315.1155 15.08847365 33462,6917.858,95.437,541.43,538.016,0.0
52618.0,STARLINK-3983,PAYLOAD,2022-12-20 12:24:59,15.08850249,0.0002442,53.216,144.6809,44.7068,315.4121,9.6728e-05,1.252e-05,0.0,0 STARLINK-3983,1 52618U 22052W   22354.51735522  .00001252  00000-0  96728-4 0  9995,2 52618  53.2160 144.6809 0002442  44.7068 315.4121 15.08850249 33571,6917.849,95.437,541.403,538.025,0.0
52618.0,STARLINK-3983,PAYLOAD,2022-12-20 21:57:18,15.08844082,0.0002389,53.2161,142.8966,44.6581,315.4604,2.8893000000000013e-05,1.72e-06,0.0,0 STARLINK-3983,1 52618U 22052W   22354.91479721  .00000172  00000-0  28893-4 0  9993,2 52618  53.2161 142.8966 0002389  44.6581 315.4604 15.08844082 34019,6917.868,95.437,541.386,538.08,0.0
52618.0,STARLINK-3983,PAYLOAD,2022-12-21 17:01:56,15.08837219,0.0002385,53.2163,139.3282,43.6857,316.4323,1.5187e-05,-4.7e-07,0.0,0 STARLINK-3983,1 52618U 22052W   22355.70968153 -.00000047  00000-0  15187-4 0  9997,2 52618  53.2163 139.3282 0002385  43.6857 316.4323 15.08837219 34130,6917.889,95.438,541.404,538.104,0.0
52618.0,STARLINK-3983,PAYLOAD,2022-12-22 08:55:47,15.08838799,0.0002421,53.2165,136.3551,42.3082,317.8096,-3.5814e-05,-8.58e-06,0.0,0 STARLINK-3983,1 52618U 22052W   22356.37208142 -.00000858  00000-0 -35814-4 0  9996,2 52618  53.2165 136.3551 0002421  42.3082 317.8096 15.08838799 33859,6917.884,95.438,541.424,538.0740000000002,0.0
52618.0,STARLINK-3983,PAYLOAD,2022-12-22 16:52:43,15.08834479,0.0002435,53.2165,134.868,42.0347,318.0831,9.5375e-06,-1.37e-06,0.0,0 STARLINK-3983,1 52618U 22052W   22356.70328389 -.00000137  00000-0  95375-5 0  9997,2 52618  53.2165 134.8680 0002435  42.0347 318.0831 15.08834479 33908,6917.897,95.438,541.447,538.078,0.0
52618.0,STARLINK-3983,PAYLOAD,2022-12-23 02:25:02,15.08839219,0.0002544,53.2169,133.0841,42.2095,317.9092,4.9722e-05,5.03e-06,0.0,0 STARLINK-3983,1 52618U 22052W   22357.10072087  .00000503  00000-0  49722-4 0  9993,2 52618  53.2169 133.0841 0002544  42.2095 317.9092 15.08839219 34348,6917.8830000000025,95.438,541.508,537.988,0.0
52618.0,STARLINK-3983,PAYLOAD,2022-12-23 11:57:21,15.08829958,0.0002487,53.2158,131.2989,40.5581,319.5596,-2.93e-05,-7.55e-06,0.0,0 STARLINK-3983,1 52618U 22052W   22357.49817067 -.00000755  00000-0 -29300-4 0  9991,2 52618  53.2158 131.2989 0002487  40.5581 319.5596 15.08829958 34027,6917.911,95.438,541.497,538.056,0.0
52618.0,STARLINK-3983,PAYLOAD,2022-12-23 13:32:44,15.088306,0.0002441,53.2157,131.0019,39.3184,320.7985,-5.904e-06,-3.82e-06,0.0,0 STARLINK-3983,1 52618U 22052W   22357.56440947 -.00000382  00000-0 -59040-5 0  9999,2 52618  53.2157 131.0019 0002441  39.3184 320.7985 15.08830600 34418,6917.909000000002,95.438,541.4630000000002,538.085,0.0
52618.0,STARLINK-3983,PAYLOAD,2022-12-23 15:08:08,15.08831216,0.0002434,53.2158,130.7046,39.3197,320.7972,9.6376e-07,-2.73e-06,0.0,0 STARLINK-3983,1 52618U 22052W   22357.63064956 -.00000273  00000-0  96376-6 0  9991,2 52618  53.2158 130.7046 0002434  39.3197 320.7972 15.08831216 34040,6917.906999999997,95.438,541.456,538.0880000000002,0.0
52618.0,STARLINK-3983,PAYLOAD,2022-12-24 02:15:49,15.08841359,0.000238,53.2161,128.6228,39.7121,320.4045,6.456e-05,7.39e-06,0.0,0 STARLINK-3983,1 52618U 22052W   22358.09432213  .00000739  00000-0  64560-4 0  9991,2 52618  53.2161 128.6228 0002380  39.7121 320.4045 15.08841359 34499,6917.876,95.437,541.388,538.095,0.0
52618.0,STARLINK-3983,PAYLOAD,2022-12-24 08:37:21,15.08844867,0.0002561,53.2158,127.4341,40.3992,319.719,8.9583e-05,1.138e-05,0.0,0 STARLINK-3983,1 52618U 22052W   22358.35927935  .00001138  00000-0  89583-4 0  9996,2 52618  53.2158 127.4341 0002561  40.3992 319.7190 15.08844867 34155,6917.866,95.437,541.502,537.9590000000002,0.0
52618.0,STARLINK-3983,PAYLOAD,2022-12-24 14:58:54,15.08837197,0.000238,53.2159,126.2439,39.7058,320.4108,0.00010145,1.327e-05,0.0,0 STARLINK-3983,1 52618U 22052W   22358.62424405  .00001327  00000-0  10145-3 0  9997,2 52618  53.2159 126.2439 0002380  39.7058 320.4108 15.08837197 34195,6917.889,95.438,541.4,538.107,0.0
52618.0,STARLINK-3983,PAYLOAD,2022-12-25 08:28:09,15.08837704,0.0002561,53.2148,122.9741,41.8412,318.2776,7.2278e-05,8.62e-06,0.0,0 STARLINK-3983,1 52618U 22052W   22359.35288567  .00000862  00000-0  72278-4 0  9994,2 52618  53.2148 122.9741 0002561  41.8412 318.2776 15.08837704 34685,6917.887,95.438,541.524,537.981,0.0
52618.0,STARLINK-3983,PAYLOAD,2022-12-25 16:25:05,15.08833524,0.0002229,53.216,121.4851,43.5996,316.5172,3.8646e-05,3.27e-06,0.0,0 STARLINK-3983,1 52618U 22052W   22359.68408926  .00000327  00000-0  38646-4 0  9990,2 52618  53.2160 121.4851 0002229  43.5996 316.5172 15.08833524 34353,6917.9,95.438,541.307,538.2230000000002,0.0
52618.0,STARLINK-3983,PAYLOAD,2022-12-26 17:51:15,15.08837469,0.0002378,53.2163,116.7286,38.2262,321.8898,5.298100000000001e-05,5.55e-06,0.0,0 STARLINK-3983,1 52618U 22052W   22360.74392782  .00000555  00000-0  52981-4 0  9992,2 52618  53.2163 116.7286 0002378  38.2262 321.8898 15.08837469 34892,6917.888000000001,95.438,541.398,538.1080000000002,0.0
52618.0,STARLINK-3983,PAYLOAD,2022-12-27 08:09:43,15.0883843,0.0002537,53.2168,114.0535,33.7615,326.3538,8.3358e-05,1.038e-05,0.0,0 STARLINK-3983,1 52618U 22052W   22361.34008651  .00001038  00000-0  83358-4 0  9997,2 52618  53.2168 114.0535 0002537  33.7615 326.3538 15.08838430 34603,6917.885,95.438,541.505,537.995,0.0
52618.0,STARLINK-3983,PAYLOAD,2022-12-27 14:31:15,15.08850771,0.0002442,53.2163,112.8633,36.627,323.4889,0.00018542,2.665e-05,0.0,0 STARLINK-3983,1 52618U 22052W   22361.60503560  .00002665  00000-0  18542-3 0  9994,2 52618  53.2163 112.8633 0002442  36.6270 323.4889 15.08850771 35023,6917.847,95.437,541.4019999999998,538.023,0.0
52618.0,STARLINK-3983,PAYLOAD,2022-12-28 23:54:21,15.08837146,0.0002596,53.2168,106.6178,34.695,325.4211,8.327200000000001e-05,1.037e-05,0.0,0 STARLINK-3983,1 52618U 22052W   22362.99608725  .00001037  00000-0  83272-4 0  9991,2 52618  53.2168 106.6178 0002596  34.6950 325.4211 15.08837146 35231,6917.889,95.438,541.55,537.9580000000002,0.0
52618.0,STARLINK-3983,PAYLOAD,2022-12-29 07:51:18,15.0882351,0.0002263,53.2178,105.1316,27.7437,332.3676,-0.0001883,-3.283e-05,0.0,0 STARLINK-3983,1 52618U 22052W   22363.32730103 -.00003283  00000-0 -18830-3 0  9999,2 52618  53.2178 105.1316 0002263  27.7437 332.3676 15.08823510 35281,6917.931,95.439,541.361,538.23,0.0
52618.0,STARLINK-3983,PAYLOAD,2022-12-30 10:52:52,15.08830565,0.0002331999999999,53.2198,100.079,31.951,328.1623,0.00015306,2.148e-05,0.0,0 STARLINK-3983,1 52618U 22052W   22364.45338009  .00002148  00000-0  15306-3 0  9995,2 52618  53.2198 100.0790 0002332  31.9510 328.1623 15.08830565 35451,6917.909000000002,95.438,541.387,538.161,0.0
52618.0,STARLINK-3983,PAYLOAD,2022-12-30 12:28:14,15.08836876,0.0002546,53.2166,99.778,28.0178,332.0951,0.00017598,2.513e-05,0.0,0 STARLINK-3983,1 52618U 22052W   22364.51961603  .00002513  00000-0  17598-3 0  9995,2 52618  53.2166  99.7780 0002546  28.0178 332.0951 15.08836876 35081,6917.89,95.438,541.516,537.994,0.0
52618.0,STARLINK-3983,PAYLOAD,2022-12-30 15:39:00,15.08843127,0.0001729,53.2165,99.1836,52.804,307.311,0.00014258,1.982e-05,0.0,0 STARLINK-3983,1 52618U 22052W   22364.65209210  .00001982  00000-0  14258-3 0  9998,2 52618  53.2165  99.1836 0001729  52.8040 307.3110 15.08843127 35484,6917.871,95.437,540.932,538.54,0.0
52618.0,STARLINK-3983,PAYLOAD,2022-12-30 23:35:54,15.08870047,0.0001905,53.2167,97.6967,34.8521,325.2596,0.0001592,2.248e-05,0.0,0 STARLINK-3983,1 52618U 22052W   22364.98327356  .00002248  00000-0  15920-3 0  9999,2 52618  53.2167  97.6967 0001905  34.8521 325.2596 15.08870047 35538,6917.7890000000025,95.436,540.971,538.336,0.0
